LEMUR-2-FURIAUS         
1 42840U 17042R   26068.96143223  .00025928  00000+0  99966-3 0  9991
2 42840  97.3753 248.4990 0007537  55.8686 304.3266 15.26272951473053
STARLINK-31363          
1 59782U 24093A   26068.70075876 -.00002146  00000+0 -68522-4 0  9992
2 59782  43.0027 205.6275 0001105 210.0856 149.9932 15.27564690102730
